OBJECT_NAME,OBJECT_ID,EPOCH,MEAN_MOTION,ECCENTRICITY,INCLINATION,RA_OF_ASC_NODE,ARG_OF_PERICENTER,MEAN_ANOMALY,EPHEMERIS_TYPE,CLASSIFICATION_TYPE,NORAD_CAT_ID,ELEMENT_SET_NO,REV_AT_EPOCH,BSTAR,MEAN_MOTION_DOT,MEAN_MOTION_DDOT
TDRS 3,1988-091B,2026-07-12T06:26:04.314336,1.00263537,.00370066,12.5830,340.8325,355.4856,1.2392,0,U,19548,999,12563,0,-.301E-5,0
FLTSATCOM 8 (USA 46),1989-077A,2026-07-12T10:58:14.083680,1.00264418,.00034956,12.4143,351.0089,69.4376,160.0118,0,U,20253,999,26081,0,-.371E-5,0
SKYNET 4C,1990-079A,2026-07-11T14:34:08.604192,0.98577098,.00028699,13.3305,349.6572,137.0180,234.3093,0,U,20776,999,28,0,-.57E-6,0
TDRS 5,1991-054B,2026-07-12T06:17:51.836928,1.00272238,.0007432,14.0679,353.5896,257.5972,325.7325,0,U,21639,999,12796,0,.8E-6,0
TDRS 6,1993-003B,2026-07-12T08:03:02.371104,1.00280801,.00081856,14.1831,356.8693,183.6383,184.3826,0,U,22314,999,12266,0,-.3E-5,0
UFO 2 (USA 95),1993-056A,2026-07-12T03:22:55.880256,1.00268970,.00026958,11.9058,3.4153,8.6299,357.3694,0,U,22787,999,11880,0,.121E-5,0
USA 99 (MILSTAR-1 1),1994-009A,2026-07-11T15:22:25.455360,0.98720423,.00016267,17.6619,27.4499,196.6248,164.5715,0,U,22988,999,3319,0,-.2E-7,0
UFO 4 (USA 108),1995-003A,2026-07-12T12:29:36.257856,1.00275863,.0003146,9.6741,13.0206,96.4803,180.6457,0,U,23467,999,11520,0,-.26E-6,0
TDRS 7,1995-035B,2026-07-12T10:30:49.325760,1.00274612,.00115792,13.3666,348.0137,85.6716,103.5899,0,U,23613,999,11350,0,-.244E-5,0
USA 115 (MILSTAR-1 2),1995-060A,2026-07-12T11:22:19.776000,1.00272901,.00060821,14.0817,3.5543,123.9580,243.4147,0,U,23712,999,3314,0,-.208E-5,0
INMARSAT 3-F1,1996-020A,2026-07-12T05:44:38.620032,0.99979676,.0004382,10.6515,46.4004,85.1476,123.0907,0,U,23839,999,11050,0,.33E-6,0
INMARSAT 3-F2,1996-053A,2026-07-12T12:23:29.710176,0.99992974,.00064147,9.9122,53.6751,52.1606,134.8919,0,U,24307,999,10917,0,-.366E-5,0
INMARSAT 3-F3,1996-070A,2026-07-12T06:44:47.520384,0.99994172,.0003524,10.3708,49.4092,72.6184,286.2297,0,U,24674,999,10815,0,.49E-6,0
USA 134,1997-065A,2026-07-12T09:46:25.309632,1.00273068,.0002461,12.8132,21.5286,333.3964,329.5500,0,U,25019,999,3320,0,-.7E-6,0
INMARSAT 3-F5,1998-006B,2026-07-12T11:32:33.794880,1.00274003,.00043044,9.7477,53.0034,60.8547,295.6731,0,U,25153,999,10414,0,-.298E-5,0
ABS-6,1999-053A,2026-07-12T14:53:38.650272,1.00269234,.00030923,0.0471,270.7296,179.9027,222.2664,0,U,25924,999,9809,0,-.12E-5,0
UFO 10 (USA 146),1999-063A,2026-07-12T07:48:38.702880,1.00273081,.0001479,9.8585,27.0756,110.2518,247.0991,0,U,25967,999,9759,0,-.193E-5,0
ASIASTAR,2000-016A,2026-07-12T12:18:00.236736,1.00272392,.00037001,9.1862,57.8788,65.4783,96.5601,0,U,26107,999,9617,0,-.341E-5,0
USA 149 (DSP 20),2000-024A,2026-07-12T04:10:28.821216,1.00280855,.0001699,13.1887,11.6694,307.5341,228.7679,0,U,26356,999,3316,0,.91E-6,0
TDRS 8,2000-034A,2026-07-12T01:20:38.543424,1.00272956,.00041792,12.7217,31.1075,34.3591,329.4932,0,U,26388,999,9543,0,-.203E-5,0
NSS-11,2000-059A,2026-07-12T14:11:38.682816,1.00270404,.00028011,2.1896,81.0874,35.3316,202.9734,0,U,26554,999,4154,0,.23E-6,0
USA 153,2000-065A,2026-07-12T12:31:55.526016,1.00273331,.00020657,11.6667,35.2057,59.3400,158.3019,0,U,26575,999,3318,0,-.333E-5,0
AMC-6,2000-067A,2026-07-12T11:43:38.849376,1.00271609,.00038136,0.2142,83.6101,42.0689,205.5675,0,U,26580,999,9414,0,.89E-6,0
USA 157 (MILSTAR-2 2),2001-009A,2026-07-12T06:00:38.766816,1.00272878,.0040549,11.5695,19.6027,179.2508,31.3536,0,U,26715,999,3319,0,.104E-5,0
INTELSAT 902 (IS-902),2001-039A,2026-07-12T10:41:26.723616,1.00270766,.00044242,6.1786,71.4730,37.0011,292.1157,0,U,26900,999,9094,0,-.288E-5,0
USA 164 (MILSTAR-2 3),2002-001A,2026-07-12T05:02:47.798016,1.00276003,.0098486,11.2085,21.7489,8.9417,354.1118,0,U,27168,999,3321,0,.93E-6,0
INTELSAT 904 (IS-904),2002-007A,2026-07-12T09:56:22.628256,1.00271287,.00053733,6.9804,68.8780,23.7610,315.2945,0,U,27380,999,5201,0,-.231E-5,0
DIRECTV 5 (TEMPO 1),2002-023A,2026-07-12T11:03:38.723040,1.00271053,.00030159,4.9397,74.9934,42.7165,228.4420,0,U,27426,999,8837,0,-.61E-6,0
INTELSAT 905 (IS-905),2002-027A,2026-07-12T11:43:38.849376,1.00271041,.00034553,6.8144,69.4911,44.2995,215.2932,0,U,27438,999,5161,0,.88E-6,0
GALAXY 3C (G-3C),2002-030A,2026-07-12T10:47:38.633280,1.00270692,.00014904,3.7962,77.6463,37.5120,242.2648,0,U,27445,999,4674,0,-.155E-5,0
INTELSAT 906 (IS-906),2002-041A,2026-07-12T12:35:15.730368,1.00272600,.00039033,5.8647,72.6091,21.4805,89.2784,0,U,27513,999,8728,0,.8E-7,0
